[
    {
        "Altitude(m)": 622200.1192375565,
        "Argument of Periapsis(deg)": 0.0,
        "Eccentricity": 0.0,
        "Inclination(deg)": 60.0,
        "Latitude(deg)": -52.16257144858637,
        "Longitude(deg)": -2.6391077346720584,
        "Mean Anomaly(deg)": -65.45450000000001,
        "RAAN(deg)": 145.0,
        "Satellite Name": "Test1 656",
        "Satellite Number": 656,
        "Semi-Major Axis(m)": 6980739.136638005,
        "Time(s)": 0
    },
    {
        "Altitude(m)": 622058.2864925716,
        "Argument of Periapsis(deg)": 0.00010418945913296404,
        "Eccentricity": 0.0,
        "Inclination(deg)": 60.0,
        "Latitude(deg)": -51.799319639599744,
        "Longitude(deg)": -1.8710511139901083,
        "Mean Anomaly(deg)": -64.83439385453815,
        "RAAN(deg)": 144.99957995086027,
        "Satellite Name": "Test1 656",
        "Satellite Number": 656,
        "Semi-Major Axis(m)": 6980739.136638005,
        "Time(s)": 10
    },
    {
        "Altitude(m)": 621913.7204628132,
        "Argument of Periapsis(deg)": 0.0002083789182659281,
        "Eccentricity": 0.0,
        "Inclination(deg)": 60.0,
        "Latitude(deg)": -51.43055627298561,
        "Longitude(deg)": -1.1159733057894614,
        "Mean Anomaly(deg)": -64.21428770907633,
        "RAAN(deg)": 144.99915990172053,
        "Satellite Name": "Test1 656",
        "Satellite Number": 656,
        "Semi-Major Axis(m)": 6980739.136638005,
        "Time(s)": 20
    },
    {
        "Altitude(m)": 621766.4775878474,
        "Argument of Periapsis(deg)": 0.00031256837739889213,
        "Eccentricity": 0.0,
        "Inclination(deg)": 60.0,
        "Latitude(deg)": -51.05643846958134,
        "Longitude(deg)": -0.3736846092275847,
        "Mean Anomaly(deg)": -63.59418156361448,
        "RAAN(deg)": 144.99873985258077,
        "Satellite Name": "Test1 656",
        "Satellite Number": 656,
        "Semi-Major Axis(m)": 6980739.136638005,
        "Time(s)": 30
    },
    {
        "Altitude(m)": 621616.6153236475,
        "Argument of Periapsis(deg)": 0.0004167578365318562,
        "Eccentricity": 0.0,
        "Inclination(deg)": 60.0,
        "Latitude(deg)": -50.67711965964833,
        "Longitude(deg)": 0.35601244185405695,
        "Mean Anomaly(deg)": -62.97407541815265,
        "RAAN(deg)": 144.99831980344103,
        "Satellite Name": "Test1 656",
        "Satellite Number": 656,
        "Semi-Major Axis(m)": 6980739.136638005,
        "Time(s)": 40
    },
    {
        "Altitude(m)": 621464.1921179849,
        "Argument of Periapsis(deg)": 0.0005209472956648203,
        "Eccentricity": 0.0,
        "Inclination(deg)": 60.0,
        "Latitude(deg)": -50.29274955587271,
        "Longitude(deg)": 1.0733210290923467,
        "Mean Anomaly(deg)": -62.35396927269079,
        "RAAN(deg)": 144.9978997543013,
        "Satellite Name": "Test1 656",
        "Satellite Number": 656,
        "Semi-Major Axis(m)": 6980739.136638005,
        "Time(s)": 50
    },
    {
        "Altitude(m)": 621309.2673853872,
        "Argument of Periapsis(deg)": 0.0006251367547977843,
        "Eccentricity": 0.0,
        "Inclination(deg)": 60.0,
        "Latitude(deg)": -49.90347414091776,
        "Longitude(deg)": 1.7784495819868913,
        "Mean Anomaly(deg)": -61.73386312722902,
        "RAAN(deg)": 144.99747970516157,
        "Satellite Name": "Test1 656",
        "Satellite Number": 656,
        "Semi-Major Axis(m)": 6980739.136638005,
        "Time(s)": 60
    },
    {
        "Altitude(m)": 621151.9014816504,
        "Argument of Periapsis(deg)": 0.0007293262139307483,
        "Eccentricity": 0.0,
        "Inclination(deg)": 60.0,
        "Latitude(deg)": -49.509435668127225,
        "Longitude(deg)": 2.471611378226921,
        "Mean Anomaly(deg)": -61.11375698176716,
        "RAAN(deg)": 144.9970596560218,
        "Satellite Name": "Test1 656",
        "Satellite Number": 656,
        "Semi-Major Axis(m)": 6980739.136638005,
        "Time(s)": 70
    },
    {
        "Altitude(m)": 620992.1556779391,
        "Argument of Periapsis(deg)": 0.0008335156730637124,
        "Eccentricity": 0.0,
        "Inclination(deg)": 60.0,
        "Latitude(deg)": -49.11077267405083,
        "Longitude(deg)": 3.153022697264088,
        "Mean Anomaly(deg)": -60.49365083630539,
        "RAAN(deg)": 144.99663960688207,
        "Satellite Name": "Test1 656",
        "Satellite Number": 656,
        "Semi-Major Axis(m)": 6980739.136638005,
        "Time(s)": 80
    },
    {
        "Altitude(m)": 620830.0921344612,
        "Argument of Periapsis(deg)": 0.0009377051321966765,
        "Eccentricity": 0.0,
        "Inclination(deg)": 60.0,
        "Latitude(deg)": -48.70762000152519,
        "Longitude(deg)": 3.822902550722937,
        "Mean Anomaly(deg)": -59.87354469084353,
        "RAAN(deg)": 144.99621955774234,
        "Satellite Name": "Test1 656",
        "Satellite Number": 656,
        "Semi-Major Axis(m)": 6980739.136638005,
        "Time(s)": 90
    },
    {
        "Altitude(m)": 620665.7738737597,
        "Argument of Periapsis(deg)": 0.0010418945913296407,
        "Eccentricity": 0.0,
        "Inclination(deg)": 60.0,
        "Latitude(deg)": -48.30010883213071,
        "Longitude(deg)": 4.481472474357499,
        "Mean Anomaly(deg)": -59.253438545381655,
        "RAAN(deg)": 144.9957995086026,
        "Satellite Name": "Test1 656",
        "Satellite Number": 656,
        "Semi-Major Axis(m)": 6980739.136638005,
        "Time(s)": 100
    },
    {
        "Altitude(m)": 620499.2647535851,
        "Argument of Periapsis(deg)": 0.0011460840504626045,
        "Eccentricity": 0.0,
        "Inclination(deg)": 60.0,
        "Latitude(deg)": -47.888366726919514,
        "Longitude(deg)": 5.128954866063658,
        "Mean Anomaly(deg)": -58.63333239991985,
        "RAAN(deg)": 144.99537945946284,
        "Satellite Name": "Test1 656",
        "Satellite Number": 656,
        "Semi-Major Axis(m)": 6980739.136638005,
        "Time(s)": 110
    },
    {
        "Altitude(m)": 620330.6294393934,
        "Argument of Periapsis(deg)": 0.0012502735095955685,
        "Eccentricity": 0.0,
        "Inclination(deg)": 60.0,
        "Latitude(deg)": -47.47251767437751,
        "Longitude(deg)": 5.7655728929399706,
        "Mean Anomaly(deg)": -58.013226254458026,
        "RAAN(deg)": 144.9949594103231,
        "Satellite Name": "Test1 656",
        "Satellite Number": 656,
        "Semi-Major Axis(m)": 6980739.136638005,
        "Time(s)": 120
    },
    {
        "Altitude(m)": 620159.9333765068,
        "Argument of Periapsis(deg)": 0.0013544629687285324,
        "Eccentricity": 0.0,
        "Inclination(deg)": 60.0,
        "Latitude(deg)": -47.052682144669255,
        "Longitude(deg)": 6.391550451673152,
        "Mean Anomaly(deg)": -57.39312010899617,
        "RAAN(deg)": 144.99453936118337,
        "Satellite Name": "Test1 656",
        "Satellite Number": 656,
        "Semi-Major Axis(m)": 6980739.136638005,
        "Time(s)": 130
    },
    {
        "Altitude(m)": 619987.2427618544,
        "Argument of Periapsis(deg)": 0.0014586524278614966,
        "Eccentricity": 0.0,
        "Inclination(deg)": 60.0,
        "Latitude(deg)": -46.62897714928548,
        "Longitude(deg)": 7.007110666481216,
        "Mean Anomaly(deg)": -56.773013963534346,
        "RAAN(deg)": 144.99411931204364,
        "Satellite Name": "Test1 656",
        "Satellite Number": 656,
        "Semi-Major Axis(m)": 6980739.136638005,
        "Time(s)": 140
    },
    {
        "Altitude(m)": 619812.6245154277,
        "Argument of Periapsis(deg)": 0.0015628418869944607,
        "Eccentricity": 0.0,
        "Inclination(deg)": 60.0,
        "Latitude(deg)": -46.2015163052773,
        "Longitude(deg)": 7.612475947451947,
        "Mean Anomaly(deg)": -56.15290781807254,
        "RAAN(deg)": 144.99369926290387,
        "Satellite Name": "Test1 656",
        "Satellite Number": 656,
        "Semi-Major Axis(m)": 6980739.136638005,
        "Time(s)": 150
    },
    {
        "Altitude(m)": 619636.1462513525,
        "Argument of Periapsis(deg)": 0.0016670313461274247,
        "Eccentricity": 0.0,
        "Inclination(deg)": 60.0,
        "Latitude(deg)": -45.77040990333804,
        "Longitude(deg)": 8.207868093514554,
        "Mean Anomaly(deg)": -55.53280167261067,
        "RAAN(deg)": 144.99327921376414,
        "Satellite Name": "Test1 656",
        "Satellite Number": 656,
        "Semi-Major Axis(m)": 6980739.136638005,
        "Time(s)": 160
    },
    {
        "Altitude(m)": 619457.8762486689,
        "Argument of Periapsis(deg)": 0.0017712208052603888,
        "Eccentricity": 0.0,
        "Inclination(deg)": 60.0,
        "Latitude(deg)": -45.3357649790583,
        "Longitude(deg)": 8.793506924325273,
        "Mean Anomaly(deg)": -54.91269552714891,
        "RAAN(deg)": 144.9928591646244,
        "Satellite Name": "Test1 656",
        "Satellite Number": 656,
        "Semi-Major Axis(m)": 6980739.136638005,
        "Time(s)": 170
    },
    {
        "Altitude(m)": 619277.8834217696,
        "Argument of Periapsis(deg)": 0.001875410264393353,
        "Eccentricity": 0.0,
        "Inclination(deg)": 60.0,
        "Latitude(deg)": -44.89768538673301,
        "Longitude(deg)": 9.369610464035764,
        "Mean Anomaly(deg)": -54.29258938168704,
        "RAAN(deg)": 144.99243911548467,
        "Satellite Name": "Test1 656",
        "Satellite Number": 656,
        "Semi-Major Axis(m)": 6980739.136638005,
        "Time(s)": 180
    },
    {
        "Altitude(m)": 619096.2372905691,
        "Argument of Periapsis(deg)": 0.0019795997235263173,
        "Eccentricity": 0.0,
        "Inclination(deg)": 60.0,
        "Latitude(deg)": -44.45627187516847,
        "Longitude(deg)": 9.936395161370314,
        "Mean Anomaly(deg)": -53.67248323622523,
        "RAAN(deg)": 144.99201906634488,
        "Satellite Name": "Test1 656",
        "Satellite Number": 656,
        "Semi-Major Axis(m)": 6980739.136638005,
        "Time(s)": 190
    }
]